OBJECT_NAME,OBJECT_ID,EPOCH,MEAN_MOTION,ECCENTRICITY,INCLINATION,RA_OF_ASC_NODE,ARG_OF_PERICENTER,MEAN_ANOMALY,EPHEMERIS_TYPE,CLASSIFICATION_TYPE,NORAD_CAT_ID,ELEMENT_SET_NO,REV_AT_EPOCH,BSTAR,MEAN_MOTION_DOT,MEAN_MOTION_DDOT
SAUDISAT 1C (SO-50),2002-058C,2026-06-16T22:52:19.187040,14.83046700,.0075272,64.5510,129.7097,262.5111,96.7439,0,U,27607,999,26442,.11563E-3,.833E-5,0
SAUDISAT 2,2004-025F,2026-06-16T23:02:47.295168,14.56683833,.0023598,98.5507,167.9363,298.9959,60.8873,0,U,28371,999,16571,.5539E-4,.198E-5,0
SAUDISAT 3,2007-012B,2026-06-16T20:24:58.307040,14.71425499,.0013617,98.1456,118.2511,224.9729,135.0375,0,U,31118,999,2769,.42656E-4,.213E-5,0
PISAT,2016-059B,2026-06-17T00:11:12.278400,14.68983223,.0028366,97.8179,168.4682,203.3501,156.6419,0,U,41784,999,51971,.12534E-3,.691E-5,0
FLYING LAPTOP,2017-042G,2026-06-17T04:27:09.405792,15.01143957,.0019599,97.4687,323.7174,121.7521,238.5617,0,U,42831,999,48645,.16791E-3,.2102E-4,0
SALSAT,2020-068K,2026-06-17T00:21:09.927072,15.29798435,.0008038,97.8847,171.0688,308.8582,51.1939,0,U,46495,999,31533,.23324E-3,.6653E-4,0
